{"type": "FeatureCollection", "features": [{"type": "Feature", "properties": {"norad_id": 22490, "name": "SCD 1", "group": "resource", "lat": 23.72368297263313, "lon": -84.35429406902583, "alt_km": 704.829949136355, "timestamp": "2025-12-24T16:52:41.156585+00:00", "meta": {"OBJECT_NAME": "SCD 1", "OBJECT_ID": "1993-009B", "EPOCH": "2025-12-24T00:42:27.383040", "MEAN_MOTION": 14.46006187, "ECCENTRICITY": 0.0042181, "INCLINATION": 24.9677, "RA_OF_ASC_NODE": 208.9929, "ARG_OF_PERICENTER": 84.3054, "MEAN_ANOMALY": 73.8287, "EPHEMERIS_TYPE": 0, "CLASSIFICATION_TYPE": "U", "NORAD_CAT_ID": 22490, "ELEMENT_SET_NO": 999, "REV_AT_EPOCH": 73573, "BSTAR": 7.7314511e-05, "MEAN_MOTION_DOT": 4.68e-06, "MEAN_MOTION_DDOT": 0}, "tle": {"line1": "1 22490U 93009B   25358.02948360  .00000468  00000+0  77315-4 0  9997", "line2": "2 22490  24.9677 208.9929 0042181  84.3054  73.8287 14.46006187735730"}}, "geometry": {"type": "Point", "coordinates": [-84.35429406902583, 23.72368297263313]}}, {"type": "Feature", "properties": {"norad_id": 25397, "name": "TECHSAT 1B (GO-32)", "group": "resource", "lat": -76.0439064905111, "lon": 21.778593164763283, "alt_km": 818.4080584962412, "timestamp": "2025-12-24T16:52:41.156646+00:00", "meta": {"OBJECT_NAME": "TECHSAT 1B (GO-32)", "OBJECT_ID": "1998-043D", "EPOCH": "2025-12-23T22:42:18.147168", "MEAN_MOTION": 14.24380036, "ECCENTRICITY": 0.0001695, "INCLINATION": 98.9932, "RA_OF_ASC_NODE": 341.4173, "ARG_OF_PERICENTER": 39.0327, "MEAN_ANOMALY": 321.0973, "EPHEMERIS_TYPE": 0, "CLASSIFICATION_TYPE": "U", "NORAD_CAT_ID": 25397, "ELEMENT_SET_NO": 999, "REV_AT_EPOCH": 42638, "BSTAR": 5.343e-05, "MEAN_MOTION_DOT": 7.7e-07, "MEAN_MOTION_DDOT": 0}, "tle": {"line1": "1 25397U 98043D   25357.94604337  .00000077  00000+0  53430-4 0  9990", "line2": "2 25397  98.9932 341.4173 0001695  39.0327 321.0973 14.24380036426385"}}, "geometry": {"type": "Point", "coordinates": [21.778593164763283, -76.0439064905111]}}, {"type": "Feature", "properties": {"norad_id": 25504, "name": "SCD 2", "group": "resource", "lat": 24.551182566501485, "lon": 146.78796816676842, "alt_km": 722.854854944846, "timestamp": "2025-12-24T16:52:41.156664+00:00", "meta": {"OBJECT_NAME": "SCD 2", "OBJECT_ID": "1998-060A", "EPOCH": "2025-12-23T23:01:37.909056", "MEAN_MOTION": 14.4542914, "ECCENTRICITY": 0.0017059, "INCLINATION": 24.9953, "RA_OF_ASC_NODE": 72.7138, "ARG_OF_PERICENTER": 71.7341, "MEAN_ANOMALY": 89.7798, "EPHEMERIS_TYPE": 0, "CLASSIFICATION_TYPE": "U", "NORAD_CAT_ID": 25504, "ELEMENT_SET_NO": 999, "REV_AT_EPOCH": 43494, "BSTAR": 6.9047e-05, "MEAN_MOTION_DOT": 4.29e-06, "MEAN_MOTION_DDOT": 0}, "tle": {"line1": "1 25504U 98060A   25357.95946654  .00000429  00000+0  69047-4 0  9993", "line2": "2 25504  24.9953  72.7138 0017059  71.7341  89.7798 14.45429140434949"}}, "geometry": {"type": "Point", "coordinates": [146.78796816676842, 24.551182566501485]}}, {"type": "Feature", "properties": {"norad_id": 25757, "name": "DLR-TUBSAT", "group": "resource", "lat": -78.4866712183232, "lon": 115.1760068172152, "alt_km": 728.0610459472409, "timestamp": "2025-12-24T16:52:41.156678+00:00", "meta": {"OBJECT_NAME": "DLR-TUBSAT", "OBJECT_ID": "1999-029B", "EPOCH": "2025-12-17T13:22:10.787520", "MEAN_MOTION": 14.52359578, "ECCENTRICITY": 0.00141996, "INCLINATION": 98.6566, "RA_OF_ASC_NODE": 336.2196, "ARG_OF_PERICENTER": 177.8976, "MEAN_ANOMALY": 182.2281, "EPHEMERIS_TYPE": 0, "CLASSIFICATION_TYPE": "U", "NORAD_CAT_ID": 25757, "ELEMENT_SET_NO": 999, "REV_AT_EPOCH": 40688, "BSTAR": 3.7650132e-05, "MEAN_MOTION_DOT": 1.05e-06, "MEAN_MOTION_DDOT": 0}, "tle": {"line1": "1 25757U 99029B   25351.55706930  .00000105  00000+0  37650-4 0  9996", "line2": "2 25757  98.6566 336.2196 0014199 177.8976 182.2281 14.52359578406886"}}, "geometry": {"type": "Point", "coordinates": [115.1760068172152, -78.4866712183232]}}, {"type": "Feature", "properties": {"norad_id": 25994, "name": "TERRA", "group": "resource", "lat": -27.471402482816227, "lon": 54.12667334413233, "alt_km": 696.3407524475751, "timestamp": "2025-12-24T16:52:41.156692+00:00", "meta": {"OBJECT_NAME": "TERRA", "OBJECT_ID": "1999-068A", "EPOCH": "2025-12-24T05:40:52.358304", "MEAN_MOTION": 14.6091434, "ECCENTRICITY": 0.0003447, "INCLINATION": 97.9732, "RA_OF_ASC_NODE": 49.4984, "ARG_OF_PERICENTER": 71.7515, "MEAN_ANOMALY": 328.4472, "EPHEMERIS_TYPE": 0, "CLASSIFICATION_TYPE": "U", "NORAD_CAT_ID": 25994, "ELEMENT_SET_NO": 999, "REV_AT_EPOCH": 38406, "BSTAR": 0.00010701804, "MEAN_MOTION_DOT": 4.79e-06, "MEAN_MOTION_DDOT": 0}, "tle": {"line1": "1 25994U 99068A   25358.23671711  .00000479  00000+0  10702-3 0  9994", "line2": "2 25994  97.9732  49.4984 0003447  71.7515 328.4472 14.60914340384063"}}, "geometry": {"type": "Point", "coordinates": [54.12667334413233, -27.471402482816227]}}, {"type": "Feature", "properties": {"norad_id": 27004, "name": "MAROC-TUBSAT", "group": "resource", "lat": 23.31585107488698, "lon": 163.08931387449655, "alt_km": 1010.943209880058, "timestamp": "2025-12-24T16:52:41.156705+00:00", "meta": {"OBJECT_NAME": "MAROC-TUBSAT", "OBJECT_ID": "2001-056D", "EPOCH": "2025-12-24T05:22:03.772992", "MEAN_MOTION": 13.70253431, "ECCENTRICITY": 0.00192509, "INCLINATION": 99.7916, "RA_OF_ASC_NODE": 166.8698, "ARG_OF_PERICENTER": 229.7018, "MEAN_ANOMALY": 309.3951, "EPHEMERIS_TYPE": 0, "CLASSIFICATION_TYPE": "U", "NORAD_CAT_ID": 27004, "ELEMENT_SET_NO": 999, "REV_AT_EPOCH": 20222, "BSTAR": 2.0617845e-05, "MEAN_MOTION_DOT": -2.8e-07, "MEAN_MOTION_DDOT": 0}, "tle": {"line1": "1 27004U 01056D   25358.22365478 -.00000028  00000+0  20618-4 0  9996", "line2": "2 27004  99.7916 166.8698 0019250 229.7018 309.3951 13.70253431202223"}}, "geometry": {"type": "Point", "coordinates": [163.08931387449655, 23.31585107488698]}}, {"type": "Feature", "properties": {"norad_id": 27424, "name": "AQUA", "group": "resource", "lat": -65.73037770949625, "lon": 120.63414780561105, "alt_km": 695.327775052886, "timestamp": "2025-12-24T16:52:41.156717+00:00", "meta": {"OBJECT_NAME": "AQUA", "OBJECT_ID": "2002-022A", "EPOCH": "2025-12-23T20:08:03.450912", "MEAN_MOTION": 14.61824731, "ECCENTRICITY": 0.00015094, "INCLINATION": 98.4053, "RA_OF_ASC_NODE": 318.8992, "ARG_OF_PERICENTER": 108.9448, "MEAN_ANOMALY": 272.2576, "EPHEMERIS_TYPE": 0, "CLASSIFICATION_TYPE": "U", "NORAD_CAT_ID": 27424, "ELEMENT_SET_NO": 999, "REV_AT_EPOCH": 25765, "BSTAR": 0.00020597954, "MEAN_MOTION_DOT": 9.8e-06, "MEAN_MOTION_DDOT": 0}, "tle": {"line1": "1 27424U 02022A   25357.83892883  .00000980  00000+0  20598-3 0  9999", "line2": "2 27424  98.4053 318.8992 0001509 108.9448 272.2576 14.61824731257652"}}, "geometry": {"type": "Point", "coordinates": [120.63414780561105, -65.73037770949625]}}, {"type": "Feature", "properties": {"norad_id": 28051, "name": "IRS-P6 (RESOURCESAT-1)", "group": "resource", "lat": 79.53387403059713, "lon": -12.900033381939261, "alt_km": 741.6921298116777, "timestamp": "2025-12-24T16:52:41.156730+00:00", "meta": {"OBJECT_NAME": "IRS-P6 (RESOURCESAT-1)", "OBJECT_ID": "2003-046A", "EPOCH": "2025-12-24T07:05:34.148832", "MEAN_MOTION": 14.36079558, "ECCENTRICITY": 0.00648502, "INCLINATION": 98.2159, "RA_OF_ASC_NODE": 38.1662, "ARG_OF_PERICENTER": 146.164, "MEAN_ANOMALY": 351.3563, "EPHEMERIS_TYPE": 0, "CLASSIFICATION_TYPE": "U", "NORAD_CAT_ID": 28051, "ELEMENT_SET_NO": 999, "REV_AT_EPOCH": 15542, "BSTAR": 5.9178706e-05, "MEAN_MOTION_DOT": 1.36e-06, "MEAN_MOTION_DDOT": 0}, "tle": {"line1": "1 28051U 03046A   25358.29553413  .00000136  00000+0  59179-4 0  9998", "line2": "2 28051  98.2159  38.1662 0064850 146.1640 351.3563 14.36079558155424"}}, "geometry": {"type": "Point", "coordinates": [-12.900033381939261, 79.53387403059713]}}, {"type": "Feature", "properties": {"norad_id": 28220, "name": "SHIYAN-1 (SY-1)", "group": "resource", "lat": -36.173856332197005, "lon": 66.76989691530217, "alt_km": 484.4841199555203, "timestamp": "2025-12-24T16:52:41.156742+00:00", "meta": {"OBJECT_NAME": "SHIYAN-1 (SY-1)", "OBJECT_ID": "2004-012A", "EPOCH": "2025-12-24T04:28:04.591200", "MEAN_MOTION": 15.28433339, "ECCENTRICITY": 0.00051213, "INCLINATION": 97.8916, "RA_OF_ASC_NODE": 60.4011, "ARG_OF_PERICENTER": 277.2947, "MEAN_ANOMALY": 82.7709, "EPHEMERIS_TYPE": 0, "CLASSIFICATION_TYPE": "U", "NORAD_CAT_ID": 28220, "ELEMENT_SET_NO": 999, "REV_AT_EPOCH": 18431, "BSTAR": 0.00056041011, "MEAN_MOTION_DOT": 0.00015451, "MEAN_MOTION_DDOT": 0}, "tle": {"line1": "1 28220U 04012A   25358.18616425  .00015451  00000+0  56041-3 0  9991", "line2": "2 28220  97.8916  60.4011 0005121 277.2947  82.7709 15.28433339184316"}}, "geometry": {"type": "Point", "coordinates": [66.76989691530217, -36.173856332197005]}}, {"type": "Feature", "properties": {"norad_id": 28376, "name": "AURA", "group": "resource", "lat": -18.599887564395825, "lon": -48.190597147036094, "alt_km": 695.4059535700926, "timestamp": "2025-12-24T16:52:41.156753+00:00", "meta": {"OBJECT_NAME": "AURA", "OBJECT_ID": "2004-026A", "EPOCH": "2025-12-24T07:06:06.093504", "MEAN_MOTION": 14.60972011, "ECCENTRICITY": 0.00014215, "INCLINATION": 98.3202, "RA_OF_ASC_NODE": 308.5772, "ARG_OF_PERICENTER": 91.0817, "MEAN_ANOMALY": 269.0546, "EPHEMERIS_TYPE": 0, "CLASSIFICATION_TYPE": "U", "NORAD_CAT_ID": 28376, "ELEMENT_SET_NO": 999, "REV_AT_EPOCH": 14067, "BSTAR": 0.00022380649, "MEAN_MOTION_DOT": 1.049e-05, "MEAN_MOTION_DDOT": 0}, "tle": {"line1": "1 28376U 04026A   25358.29590386  .00001049  00000+0  22381-3 0  9995", "line2": "2 28376  98.3202 308.5772 0001421  91.0817 269.0546 14.60972011140679"}}, "geometry": {"type": "Point", "coordinates": [-48.190597147036094, -18.599887564395825]}}]}